FENGYUN 1C DEB          
1 31357U 99025BRM 17346.51353742 -.00000021  00000-0  11812-4 0  9996
2 31357  98.9554   0.2845 0050422  26.3962 126.9642 14.18210334553584
